{
  "type": "FeatureCollection",
  "features": [
    {
      "type": "Feature",
      "properties": {
        "norad_id": 32460,
        "name": "FENGYUN 1C DEB",
        "group": "fengyun-1c-debris",
        "lat": -0.2955270450336074,
        "lon": 135.40552001398135,
        "alt_km": 984.3914894953705,
        "timestamp": "2025-12-16T17:51:11.218196+00:00",
        "meta_object_name": "FENGYUN 1C DEB",
        "meta_object_id": "1999-025DBY",
        "meta_epoch": "2025-12-14T08:49:36.815808",
        "meta_mean_motion": 13.89583685,
        "meta_eccentricity": 0.01858337,
        "meta_inclination": 98.0167,
        "meta_ra_of_asc_node": 133.3151,
        "meta_arg_of_pericenter": 119.6694,
        "meta_mean_anomaly": 242.3114,
        "meta_ephemeris_type": 0,
        "meta_classification_type": "U",
        "meta_norad_cat_id": 32460,
        "meta_element_set_no": 999,
        "meta_rev_at_epoch": 65276,
        "meta_bstar": 0.0012950597,
        "meta_mean_motion_dot": 1.788e-05,
        "meta_mean_motion_ddot": 0,
        "tle_line1": "1 32460U 99025DBY 25348.36778722  .00001788  00000+0  12951-2 0  9997",
        "tle_line2": "2 32460  98.0167 133.3151 0185833 119.6694 242.3114 13.89583685652768"
      },
      "geometry": {
        "type": "Point",
        "coordinates": [
          135.40552001398135,
          -0.2955270450336074
        ]
      }
    },
    {
      "type": "Feature",
      "properties": {
        "norad_id": 32461,
        "name": "FENGYUN 1C DEB",
        "group": "fengyun-1c-debris",
        "lat": -43.76048193665783,
        "lon": 17.33482010710965,
        "alt_km": 1073.387073238997,
        "timestamp": "2025-12-16T17:51:11.218206+00:00",
        "meta_object_name": "FENGYUN 1C DEB",
        "meta_object_id": "1999-025DBZ",
        "meta_epoch": "2025-12-15T08:23:37.650048",
        "meta_mean_motion": 13.72839019,
        "meta_eccentricity": 0.02322985,
        "meta_inclination": 98.3342,
        "meta_ra_of_asc_node": 204.1893,
        "meta_arg_of_pericenter": 109.9546,
        "meta_mean_anomaly": 65.5454,
        "meta_ephemeris_type": 0,
        "meta_classification_type": "U",
        "meta_norad_cat_id": 32461,
        "meta_element_set_no": 999,
        "meta_rev_at_epoch": 67330,
        "meta_bstar": 0.0012109015,
        "meta_mean_motion_dot": 1.319e-05,
        "meta_mean_motion_ddot": 0,
        "tle_line1": "1 32461U 99025DBZ 25349.34974132  .00001319  00000+0  12109-2 0  9995",
        "tle_line2": "2 32461  98.3342 204.1893 0232298 109.9546  65.5454 13.72839019673305"
      },
      "geometry": {
        "type": "Point",
        "coordinates": [
          17.33482010710965,
          -43.76048193665783
        ]
      }
    },
    {
      "type": "Feature",
      "properties": {
        "norad_id": 32464,
        "name": "FENGYUN 1C DEB",
        "group": "fengyun-1c-debris",
        "lat": -52.2898835031971,
        "lon": -174.81465499432298,
        "alt_km": 518.3316480803387,
        "timestamp": "2025-12-16T17:51:11.218216+00:00",
        "meta_object_name": "FENGYUN 1C DEB",
        "meta_object_id": "1999-025DCC",
        "meta_epoch": "2025-12-13T19:38:43.075104",
        "meta_mean_motion": 14.92976126,
        "meta_eccentricity": 0.01123918,
        "meta_inclination": 97.3569,
        "meta_ra_of_asc_node": 12.0682,
        "meta_arg_of_pericenter": 232.4264,
        "meta_mean_anomaly": 126.6709,
        "meta_ephemeris_type": 0,
        "meta_classification_type": "U",
        "meta_norad_cat_id": 32464,
        "meta_element_set_no": 999,
        "meta_rev_at_epoch": 60808,
        "meta_bstar": 0.0014885262,
        "meta_mean_motion_dot": 0.00017468,
        "meta_mean_motion_ddot": 0,
        "tle_line1": "1 32464U 99025DCC 25347.81855411  .00017468  00000+0  14885-2 0  9991",
        "tle_line2": "2 32464  97.3569  12.0682 0112391 232.4264 126.6709 14.92976126608089"
      },
      "geometry": {
        "type": "Point",
        "coordinates": [
          -174.81465499432298,
          -52.2898835031971
        ]
      }
    },
    {
      "type": "Feature",
      "properties": {
        "norad_id": 33502,
        "name": "FENGYUN 1C DEB",
        "group": "fengyun-1c-debris",
        "lat": 14.452483492771696,
        "lon": 115.9410930911282,
        "alt_km": 767.447726561586,
        "timestamp": "2025-12-16T17:51:11.218227+00:00",
        "meta_object_name": "FENGYUN 1C DEB",
        "meta_object_id": "1999-025DCF",
        "meta_epoch": "2025-12-15T19:23:06.258048",
        "meta_mean_motion": 14.21896421,
        "meta_eccentricity": 0.00794995,
        "meta_inclination": 99.0249,
        "meta_ra_of_asc_node": 292.6361,
        "meta_arg_of_pericenter": 143.8624,
        "meta_mean_anomaly": 271.6021,
        "meta_ephemeris_type": 0,
        "meta_classification_type": "U",
        "meta_norad_cat_id": 33502,
        "meta_element_set_no": 999,
        "meta_rev_at_epoch": 86999,
        "meta_bstar": 0.0016368943,
        "meta_mean_motion_dot": 3.683e-05,
        "meta_mean_motion_ddot": 0,
        "tle_line1": "1 33502U 99025DCF 25349.80771132  .00003683  00000+0  16369-2 0  9996",
        "tle_line2": "2 33502  99.0249 292.6361 0079499 143.8624 271.6021 14.21896421869991"
      },
      "geometry": {
        "type": "Point",
        "coordinates": [
          115.9410930911282,
          14.452483492771696
        ]
      }
    },
    {
      "type": "Feature",
      "properties": {
        "norad_id": 33599,
        "name": "FENGYUN 1C DEB",
        "group": "fengyun-1c-debris",
        "lat": 0.7017711548527615,
        "lon": 57.90670888483116,
        "alt_km": 498.35683435524425,
        "timestamp": "2025-12-16T17:51:11.218237+00:00",
        "meta_object_name": "FENGYUN 1C DEB",
        "meta_object_id": "1999-025DCG",
        "meta_epoch": "2025-12-06T10:36:41.156064",
        "meta_mean_motion": 15.14898296,
        "meta_eccentricity": 0.0126212,
        "meta_inclination": 96.6136,
        "meta_ra_of_asc_node": 49.0151,
        "meta_arg_of_pericenter": 322.3863,
        "meta_mean_anomaly": 36.8593,
        "meta_ephemeris_type": 0,
        "meta_classification_type": "U",
        "meta_norad_cat_id": 33599,
        "meta_element_set_no": 999,
        "meta_rev_at_epoch": 65908,
        "meta_bstar": 0.0016783,
        "meta_mean_motion_dot": 0.00038297,
        "meta_mean_motion_ddot": 0,
        "tle_line1": "1 33599U 99025DCG 25340.44214301  .00038297  00000+0  16783-2 0  9992",
        "tle_line2": "2 33599  96.6136  49.0151 0126212 322.3863  36.8593 15.14898296659088"
      },
      "geometry": {
        "type": "Point",
        "coordinates": [
          57.90670888483116,
          0.7017711548527615
        ]
      }
    },
    {
      "type": "Feature",
      "properties": {
        "norad_id": 33601,
        "name": "FENGYUN 1C DEB",
        "group": "fengyun-1c-debris",
        "lat": -0.9375116073284251,
        "lon": 146.76139027847418,
        "alt_km": 945.2490147484095,
        "timestamp": "2025-12-16T17:51:11.218247+00:00",
        "meta_object_name": "FENGYUN 1C DEB",
        "meta_object_id": "1999-025DCJ",
        "meta_epoch": "2025-12-15T16:16:24.658752",
        "meta_mean_motion": 14.0792841,
        "meta_eccentricity": 0.01585243,
        "meta_inclination": 98.3151,
        "meta_ra_of_asc_node": 145.6419,
        "meta_arg_of_pericenter": 134.1564,
        "meta_mean_anomaly": 227.2767,
        "meta_ephemeris_type": 0,
        "meta_classification_type": "U",
        "meta_norad_cat_id": 33601,
        "meta_element_set_no": 999,
        "meta_rev_at_epoch": 90721,
        "meta_bstar": 0.00080696434,
        "meta_mean_motion_dot": 1.5e-05,
        "meta_mean_motion_ddot": 0,
        "tle_line1": "1 33601U 99025DCJ 25349.67806318  .00001500  00000+0  80696-3 0  9997",
        "tle_line2": "2 33601  98.3151 145.6419 0158524 134.1564 227.2767 14.07928410907219"
      },
      "geometry": {
        "type": "Point",
        "coordinates": [
          146.76139027847418,
          -0.9375116073284251
        ]
      }
    },
    {
      "type": "Feature",
      "properties": {
        "norad_id": 33603,
        "name": "FENGYUN 1C DEB",
        "group": "fengyun-1c-debris",
        "lat": -12.44171255942646,
        "lon": -71.22259203194349,
        "alt_km": 584.1306472605247,
        "timestamp": "2025-12-16T17:51:11.218257+00:00",
        "meta_object_name": "FENGYUN 1C DEB",
        "meta_object_id": "1999-025DCL",
        "meta_epoch": "2025-12-14T13:59:04.332192",
        "meta_mean_motion": 14.79931915,
        "meta_eccentricity": 0.02204946,
        "meta_inclination": 98.8043,
        "meta_ra_of_asc_node": 284.4484,
        "meta_arg_of_pericenter": 66.755,
        "meta_mean_anomaly": 295.6708,
        "meta_ephemeris_type": 0,
        "meta_classification_type": "U",
        "meta_norad_cat_id": 33603,
        "meta_element_set_no": 999,
        "meta_rev_at_epoch": 98887,
        "meta_bstar": 0.00024200793,
        "meta_mean_motion_dot": 2.692e-05,
        "meta_mean_motion_ddot": 0,
        "tle_line1": "1 33603U 99025DCL 25348.58268903  .00002692  00000+0  24201-3 0  9993",
        "tle_line2": "2 33603  98.8043 284.4484 0220494  66.7550 295.6708 14.79931915988879"
      },
      "geometry": {
        "type": "Point",
        "coordinates": [
          -71.22259203194349,
          -12.44171255942646
        ]
      }
    }
  ]
}